satname,norad_id,inclination_deg,eccentricity,mean_motion_rev_per_day,perigee_km,apogee_km,l1,l2
STARLINK-1263,45405,53.0532,0.000149,15.06404707,546.1652569131511,548.2290064843965,1 45405U 20019AX  25257.28575258  .00001613  00000+0  12714-3 0  9991,2 45405  53.0532 208.5275 0001490  88.3784 271.7375 15.06404707303270
STARLINK-1265,45406,53.0543,0.0001374,15.06407949,546.2356559608106,548.1387350497362,1 45406U 20019AY  25257.16042201  .00001155  00000+0  96425-4 0  9999,2 45406  53.0543 209.0892 0001374  91.7099 268.4048 15.06407949303251
STARLINK-1278,45408,53.0531,0.0001312,15.06400155,546.3024772171675,548.1196885541167,1 45408U 20019BA  25257.38620505  .00000823  00000+0  74103-4 0  9994,2 45408  53.0531 238.0781 0001312  91.2261 268.8878 15.06400155302871
STARLINK-1296,45412,53.0531,0.0001689,15.06411353,546.0070773523921,548.3464483414818,1 45412U 20019BE  25257.29681206  .00001569  00000+0  12416-3 0  9990,2 45412  53.0531 208.4774 0001689  88.4595 271.6587 15.06411353303270
STARLINK-1298,45413,53.0512,0.0008555,15.41227354,436.6508088242681,448.320894523481,1 45413U 20019BF  25257.14362707  .00099468  00000+0  23344-2 0  9993,2 45413  53.0512 198.7881 0008555  68.7423 291.4494 15.41227354303496
STARLINK-1309,45414,53.0501,0.000147,15.06394769,546.2095616515035,548.2456188410351,1 45414U 20019BG  25257.24521365  .00000974  00000+0  84316-4 0  9994,2 45414  53.0501 208.7120 0001470  91.4347 268.6811 15.06394769303259
STARLINK-1316,45415,53.0524,0.0001731,15.06396613,546.0231589926334,548.4207182571863,1 45415U 20019BH  25257.13832424  .00000035  00000+0  21224-4 0  9991,2 45415  53.0524 209.1864 0001731  88.9918 271.1269 15.06396613303278
STARLINK-1318,45416,53.0532,0.0001162,15.54966514,401.4620898201392,403.03785175214944,1 45416U 20019BJ  25257.52551083  .00030078  00000+0  44660-3 0  9992,2 45416  53.0532 192.1752 0001162 112.8299 247.2834 15.54966514303539
STARLINK-1286,45417,53.0503,0.000146,15.06385677,546.2443489196048,548.2665635168196,1 45417U 20019BK  25257.37516170  .00000033  00000+0  21106-4 0  9993,2 45417  53.0503 238.1275 0001460  83.5388 276.5767 15.06385677303142
STARLINK-1308,45419,53.0504,0.0001355,15.06402535,546.2654048624336,548.1421722161276,1 45419U 20019BM  25257.37145563  .00001425  00000+0  11454-3 0  9999,2 45419  53.0504 238.1447 0001355  85.3958 274.7186 15.06402535302891
STARLINK-1329,45531,53.0556,0.0001403,15.06398593,546.244243186301,548.1874972016767,1 45531U 20025A   25257.47281969  .00000538  00000+0  55039-4 0  9995,2 45531  53.0556 177.6874 0001403  90.6825 269.4324 15.06398593298538
STARLINK-1338,45532,53.055,0.0001831,15.06390528,545.972551769738,548.508625042613,1 45532U 20025B   25257.48388119  .00000628  00000+0  61108-4 0  9996,2 45532  53.0550 177.6374 0001831  87.1524 272.9675 15.06390528298538
STARLINK-1350,45535,53.0728,0.0003054,15.30864971,471.1378970403375,475.3227121899972,1 45535U 20025E   25257.36947689  .00006534  00000+0  22790-3 0  9994,2 45535  53.0728 137.9503 0003054 104.5071 255.6268 15.30864971299106
STARLINK-1362,45538,53.0542,0.000144,15.06396834,546.2240096996584,548.2185128789097,1 45538U 20025H   25257.51607466 -.00002655  00000+0 -15942-3 0  9993,2 45538  53.0542 177.2109 0001440  88.3833 271.7321 15.06396834298541
STARLINK-1368,45540,53.057,0.0001168,15.06397922,546.4090452608716,548.0268081717522,1 45540U 20025K   25257.05631097  .00000381  00000+0  44452-4 0  9993,2 45540  53.0570 179.5559 0001168  85.5344 274.5779 15.06397922298460
STARLINK-1371,45542,53.0539,0.0001683,15.06395742,546.0590697671059,548.3901464844002,1 45542U 20025M   25257.49124597  .00001134  00000+0  95034-4 0  9994,2 45542  53.0539 177.6057 0001683  87.8198 272.2983 15.06395742298531
STARLINK-1372,45543,53.0537,0.0001325,15.06390652,546.3225958799703,548.1578208401861,1 45543U 20025N   25257.06368332  .00008159  00000+0  56615-3 0  9990,2 45543  53.0537 179.5221 0001325 100.6129 259.5010 15.06390652297561
STARLINK-1373,45544,53.0548,0.0001107,15.06386747,546.4855361904238,548.0188173541619,1 45544U 20025P   25257.48020343  .00001693  00000+0  13253-3 0  9991,2 45544  53.0548 177.6571 0001107  90.0966 270.0150 15.06386747298531
STARLINK-1294,45551,53.0511,0.0005404,15.4928265,415.15027170485155,422.4964264501341,1 45551U 20025W   25256.93996081  .00086093  00000+0  15396-2 0  9995,2 45551  53.0511 129.7077 0005404 164.8445 195.2726 15.49282650299166
STARLINK-1323,45553,53.0375,0.0007567,15.86314465,307.5631785393407,317.68897938304053,1 45553U 20025Y   25257.58335648  .00232864  00000+0  88894-3 0  9998,2 45553  53.0375 111.3051 0007567  81.3543 119.0512 15.86314465  5588
STARLINK-1325,45554,53.0599,8.31e-05,15.45587684,429.0860989479115,430.2175534508251,1 45554U 20025Z   25257.04604362  .00043561  00000+0  89499-3 0  9998,2 45554  53.0599 120.7498 0000831 186.4991 173.6004 15.45587684299304
STARLINK-1327,45555,53.0524,0.0001712,15.06393227,546.0466930586163,548.4179395125129,1 45555U 20025AA  25257.45255127  .00001444  00000+0  11584-3 0  9999,2 45555  53.0524 157.7789 0001712  87.4163 272.7023 15.06393227298807
STARLINK-1336,45557,53.0398,0.0009435,15.81085304,321.0436594409739,333.6969517266107,1 45557U 20025AC  25257.58335648  .00199138  00000+0  97712-3 0  9997,2 45557  53.0398 116.6004 0009435  95.6177 337.0292 15.81085304  6030
STARLINK-1342,45558,53.0457,0.0006184,15.90217091,297.54405825419417,305.80564955510454,1 45558U 20025AD  25257.58335648  .00301476  44577-4  98133-3 0  9998,2 45558  53.0457 113.6626 0006184  94.4792 156.9038 15.90217091  5598
STARLINK-1355,45563,53.0319,0.0006992,16.02727566,262.2227022006691,271.51507843769105,1 45563U 20025AJ  25255.17517005  .00444751  99634-4  72518-3 0  9993,2 45563  53.0319  55.5153 0006992 298.0691  61.9632 16.02727566300036
STARLINK-1356,45564,53.0515,0.0001241,15.06400761,546.3497901172695,548.0686610504599,1 45564U 20025AK  25257.45623478  .00000103  00000+0  25798-4 0  9991,2 45564  53.0515 157.7610 0001241  84.3900 275.7231 15.06400761298808
STARLINK-1357,45565,53.0684,0.0008827,15.24444825,486.38835358059714,498.51769320789845,1 45565U 20025AL  25257.43423805  .00021845  00000+0  88876-3 0  9993,2 45565  53.0684 150.0475 0008827  89.6428 270.5581 15.24444825298913
STARLINK-1361,45567,53.0538,0.0001465,15.06393332,546.2174279156025,548.2465610309846,1 45567U 20025AN  25256.94389236 -.00000507  00000+0 -15166-4 0  9996,2 45567  53.0538 160.0647 0001465  80.6132 279.5023 15.06393332298735
STARLINK-1363,45568,53.0516,0.000127,15.06391139,546.3591930442817,548.118238476085,1 45568U 20025AP  25257.42310200  .00006375  00000+0  44658-3 0  9990,2 45568  53.0516 158.1539 0001270  93.2354 266.8781 15.06391139298799
STARLINK-1366,45569,53.0552,0.0001064,15.06424781,546.3987597779878,547.8724577891362,1 45569U 20025AQ  25257.14659780 -.00005107  00000+0 -32397-3 0  9990,2 45569  53.0552 159.1491 0001064  87.0503 273.0608 15.06424781298750
STARLINK-1376,45570,53.0547,0.000144,15.06403555,546.2034137733344,548.1979110201046,1 45570U 20025AR  25257.13924298  .00000905  00000+0  79655-4 0  9998,2 45570  53.0547 159.1845 0001440  94.5252 265.5902 15.06403555298750
STARLINK-1320,45572,53.0569,0.0008272,15.34240549,457.51806811741426,468.83633833523254,1 45572U 20025AT  25257.30010225  .00011421  00000+0  35014-3 0  9990,2 45572  53.0569 112.4771 0008272 151.3069 208.8389 15.34240549299443
STARLINK-1321,45573,53.0535,0.0002054,15.06400586,545.7872957083573,548.6322281581606,1 45573U 20025AU  25257.39080000  .00000160  00000+0  29649-4 0  9994,2 45573  53.0535 148.0537 0002054  87.7927 272.3298 15.06400586298632
STARLINK-1328,45576,53.0528,0.0001739,15.52778995,407.4362946001502,409.79672747128825,1 45576U 20025AX  25256.98660579  .00087124  00000+0  13762-2 0  9998,2 45576  53.0528 144.3239 0001739 131.4692 228.6467 15.52778995298961
STARLINK-1331,45578,53.0535,0.0001643,15.06397517,546.0813319677136,548.3570040045133,1 45578U 20025AZ  25257.43504329  .00001077  00000+0  91197-4 0  9994,2 45578  53.0535 147.8568 0001643  88.1271 271.9906 15.06397517298953
STARLINK-1333,45580,53.0546,0.0001305,15.06399019,546.3108061844432,548.1183229427952,1 45580U 20025BB  25257.44149215 -.00000866  00000+0 -39249-4 0  9994,2 45580  53.0546 157.8270 0001305 103.1617 256.9518 15.06399019298801
STARLINK-1335,45581,53.0538,0.0001464,15.06403002,546.1884875740216,548.2162269378259,1 45581U 20025BC  25257.11436452  .00002921  00000+0  21493-3 0  9994,2 45581  53.0538 149.2958 0001464  91.2950 268.8207 15.06403002298898
STARLINK-1337,45582,53.0541,0.0001218,15.06400073,546.3678267766945,548.0548416309066,1 45582U 20025BD  25257.40187348  .00000888  00000+0  78511-4 0  9998,2 45582  53.0541 148.0062 0001218  77.3457 282.7668 15.06400073298936
STARLINK-1347,45586,53.0594,0.0007999,15.2373409,489.09185564362906,500.0868432574807,1 45586U 20025BH  25257.40970267  .00028766  00000+0  11900-2 0  9994,2 45586  53.0594 140.4403 0007999  95.5370 264.6539 15.23734090299037
STARLINK-1349,45587,53.04,0.0002503,16.11613322,240.76409154225803,244.0783429858202,1 45587U 20025BJ  25255.25972801  .00720409  29918-3  67178-3 0  9997,2 45587  53.0400 105.5199 0002503 265.8642  94.2106 16.11613322299341
STARLINK-1360,45588,53.0501,0.0001006,15.65668385,370.6381827098039,371.99617289037633,1 45588U 20025BK  25257.47844280  .00044960  00000+0  44054-3 0  9999,2 45588  53.0501  73.2606 0001006 311.6450  48.4479 15.65668385299994
STARLINK-1364,45589,53.0552,0.0001419,15.06399694,546.2297886909128,548.195202877816,1 45589U 20025BL  25257.40555584  .00001668  00000+0  13087-3 0  9999,2 45589  53.0552 147.9920 0001419  88.1759 271.9392 15.06399694298934
STARLINK-1365,45590,53.0526,0.0001319,15.06395907,546.310647292772,548.1375575515904,1 45590U 20025BM  25257.48755942  .00001269  00000+0  10406-3 0  9998,2 45590  53.0526 177.6210 0001319  93.3530 266.7610 15.06395907298548
